      2.10          N: GNSS NAV DATA                        RINEX VERSION / TYPE
fic2rin                                 03/01/2019 16:39:49 PGM / RUN BY / DATE
                                                            END OF HEADER
 5 19  2 28 20  0  0.0 1.148786395788e-06 0.000000000000e+00 0.000000000000e+00
    2.700000000000e+01-3.568750000000e+01 4.626621288776e-09 1.001136351496e+00
   -1.734122633934e-06 5.542654776946e-03 9.519979357719e-06 5.153638858795e+03
    4.176000000000e+05-3.911554813385e-08-3.351633752999e-01 3.911554813385e-08
    9.496558868538e-01 1.913437500000e+02 7.115685412631e-01-8.048549540109e-09
    2.728685089258e-10 1.000000000000e+00 2.042000000000e+03 0.000000000000e+00
    2.400000000000e+00 0.000000000000e+00-1.117587089539e-08 2.700000000000e+01
    4.104000000000e+05 4.000000000000e+00
22 19  2 28 20  0  0.0-6.548878736794e-04-7.844391802792e-12 0.000000000000e+00
    3.500000000000e+01-2.356250000000e+01 5.135213902271e-09-5.324400682774e-01
   -1.180917024612e-06 7.223930908367e-03 9.486451745033e-06 5.153566841125e+03
    4.176000000000e+05-1.695007085800e-07-3.793400210117e-01 1.247972249985e-07
    9.271432482663e-01 1.810312500000e+02-1.412256332339e+00-8.348204879099e-09
    3.900162457421e-10 1.000000000000e+00 2.042000000000e+03 0.000000000000e+00
    2.400000000000e+00 0.000000000000e+00-1.816079020500e-08 3.500000000000e+01
    4.104000000000e+05 4.000000000000e+00
12 19  2 28 20  0  0.0 2.640727907419e-04-3.183231456205e-12 0.000000000000e+00
    1.900000000000e+01 7.840625000000e+01 3.896948037813e-09 3.002739555881e+00
    3.971159458160e-06 7.509051589295e-03 8.067116141319e-06 5.153696580887e+03
    4.176000000000e+05-5.587935447693e-09 2.897713632878e+00-1.937150955200e-07
    9.840118245222e-01 2.309687500000e+02 1.037423267883e+00-7.688177386305e-09
   -3.392998474863e-11 1.000000000000e+00 2.042000000000e+03 0.000000000000e+00
    2.400000000000e+00 0.000000000000e+00-1.257285475731e-08 1.900000000000e+01
    4.104000000000e+05 4.000000000000e+00
30 19  2 28 20  0  0.0-6.052013486624e-05-6.480149750132e-12 0.000000000000e+00
    1.800000000000e+01 2.409375000000e+01 5.045210153254e-09-2.548082552220e+00
    1.192092895508e-06 3.691998310387e-03 8.760020136833e-06 5.153621309280e+03
    4.176000000000e+05-4.470348358154e-08 1.828891028652e+00-8.568167686462e-08
    9.413065437787e-01 2.044687500000e+02-3.019968254325e+00-8.155696860368e-09
   -3.257278535868e-10 1.000000000000e+00 2.042000000000e+03 0.000000000000e+00
    2.400000000000e+00 0.000000000000e+00 3.725290298462e-09 1.800000000000e+01
    4.104000000000e+05 4.000000000000e+00
25 19  2 28 20  0  0.0-7.268898189068e-04-5.229594535194e-12 0.000000000000e+00
    2.300000000000e+01 7.053125000000e+01 4.162316234321e-09 2.685830072997e+00
    3.525987267494e-06 8.278375375085e-03 8.538365364075e-06 5.153751865387e+03
    4.176000000000e+05-5.960464477539e-08 2.834520522369e+00-1.452863216400e-07
    9.714540362514e-01 2.176562500000e+02 8.611582917280e-01-7.749251358852e-09
   -5.000208278745e-11 1.000000000000e+00 2.042000000000e+03 0.000000000000e+00
    2.400000000000e+00 0.000000000000e+00 5.587935447693e-09 2.300000000000e+01
    4.104000000000e+05 4.000000000000e+00
21 19  2 28 20  0  0.0-2.413755282760e-04 7.275957614183e-12 0.000000000000e+00
    2.100000000000e+01-8.953125000000e+01 4.589834042154e-09 2.573554045027e+00
   -4.623085260391e-06 2.477858960629e-02 5.133450031281e-06 5.153789953232e+03
    4.176000000000e+05 2.905726432800e-07-1.414086322897e+00-5.587935447693e-08
    9.471067506378e-01 2.697187500000e+02-1.471411133563e+00-7.794610391095e-09
   -2.200091642648e-10 1.000000000000e+00 2.042000000000e+03 0.000000000000e+00
    2.400000000000e+00 0.000000000000e+00-1.024454832077e-08 2.100000000000e+01
    4.104000000000e+05 4.000000000000e+00
16 19  2 28 20  0  0.0-2.226885408163e-05-2.501110429876e-12 0.000000000000e+00
    5.200000000000e+01 7.512500000000e+01 4.000523780730e-09 1.089971713926e+00
    4.259869456291e-06 1.065296283923e-02 7.705762982368e-06 5.153786621094e+03
    4.176000000000e+05-4.097819328308e-08 2.916617098958e+00 1.434236764908e-07
    9.843881821419e-01 2.435312500000e+02 5.454047160099e-01-7.910686654709e-09
   -1.657211886670e-10 1.000000000000e+00 2.042000000000e+03 0.000000000000e+00
    2.400000000000e+00 0.000000000000e+00-1.071020960808e-08 5.200000000000e+01
    4.104000000000e+05 4.000000000000e+00
 8 19  2 28 20  0  0.0-1.344555057585e-04-1.364242052659e-12 0.000000000000e+00
    8.800000000000e+01 6.250000000000e+00 4.462685888780e-09 5.319309318241e-01
    1.657754182816e-07 4.314834252000e-03 3.343448042870e-06 5.153700304031e+03
    4.176000000000e+05 6.519258022308e-08-2.418788668874e+00-4.470348358154e-08
    9.702260481864e-01 3.163750000000e+02-3.280657619872e-01-8.262487022892e-09
   -6.964575816824e-11 1.000000000000e+00 2.042000000000e+03 0.000000000000e+00
    2.400000000000e+00 0.000000000000e+00 5.122274160385e-09 8.800000000000e+01
    4.104000000000e+05 4.000000000000e+00
24 19  2 28 20  0  0.0-6.277952343225e-05-5.684341886081e-13 0.000000000000e+00
    7.800000000000e+01 4.968750000000e+00 5.165215151944e-09-1.651305053564e+00
    1.601874828339e-07 8.217522874475e-03 7.906928658485e-06 5.153724723816e+03
    4.176000000000e+05 7.823109626770e-08 1.734901884827e+00-1.173466444016e-07
    9.389391488015e-01 2.137500000000e+02 5.975043753584e-01-8.222485356662e-09
   -2.435815747217e-10 1.000000000000e+00 2.042000000000e+03 0.000000000000e+00
    3.400000000000e+00 0.000000000000e+00 2.793967723846e-09 7.800000000000e+01
    4.104000000000e+05 4.000000000000e+00
13 19  2 28 20  0  0.0-7.335748523474e-05 1.364242052659e-12 0.000000000000e+00
    6.400000000000e+01 9.281250000000e+00 4.664837166335e-09-8.623894177522e-01
    5.401670932770e-07 3.707232768647e-03 6.753951311111e-06 5.153657859802e+03
    4.176000000000e+05-1.490116119385e-08 8.585129920550e-01 3.352761268616e-08
    9.680524620593e-01 2.553125000000e+02 1.361084603391e+00-8.054978379324e-09
    8.893227581482e-11 1.000000000000e+00 2.042000000000e+03 0.000000000000e+00
    2.400000000000e+00 0.000000000000e+00-1.117587089539e-08 6.400000000000e+01
    4.104000000000e+05 4.000000000000e+00
27 19  2 28 20  0  0.0-7.674098014832e-05-7.617018127348e-12 0.000000000000e+00
    9.100000000000e+01 9.843750000000e+00 4.313036798152e-09 2.373339500945e-01
    5.513429641724e-07 6.762766395696e-03 3.186985850334e-06 5.153635139465e+03
    4.176000000000e+05 5.587935447693e-08-2.408125524826e+00 5.587935447693e-08
    9.784850092568e-01 3.221562500000e+02 4.357517659873e-01-8.234985877359e-09
   -7.428880871279e-11 1.000000000000e+00 2.042000000000e+03 0.000000000000e+00
    2.400000000000e+00 0.000000000000e+00 1.396983861923e-09 9.100000000000e+01
    4.104000000000e+05 4.000000000000e+00
14 19  2 28 20  0  0.0-9.002722799778e-05 1.364242052659e-12 0.000000000000e+00
    6.500000000000e+01 1.131250000000e+01 4.881989068726e-09-8.056569279877e-03
    5.364418029785e-07 1.019911724143e-02 6.685033440590e-06 5.153669981003e+03
    4.176000000000e+05-1.024454832077e-07 8.147115292397e-01 7.823109626770e-08
    9.606522456049e-01 2.535312500000e+02-1.948359417287e+00-8.327846888250e-09
    9.214669542259e-11 1.000000000000e+00 2.042000000000e+03 0.000000000000e+00
    2.400000000000e+00 0.000000000000e+00-9.778887033463e-09 6.500000000000e+01
    4.104000000000e+05 4.000000000000e+00
11 19  2 28 20  0  0.0-6.528012454510e-04 6.252776074689e-12 0.000000000000e+00
    1.040000000000e+02-6.525000000000e+01 5.550231189407e-09-2.640844913425e+00
   -3.192573785782e-06 1.654875173699e-02 3.524124622345e-06 5.153690391541e+03
    4.176000000000e+05 1.285225152969e-07-1.797526483427e+00 1.564621925354e-07
    9.083193971145e-01 2.809062500000e+02 1.866067165165e+00-8.464281142713e-09
   -1.257195224370e-10 1.000000000000e+00 2.042000000000e+03 0.000000000000e+00
    3.400000000000e+00 0.000000000000e+00-1.210719347000e-08 1.040000000000e+02
    4.104000000000e+05 4.000000000000e+00
 7 19  2 28 20  0  0.0 2.377200871706e-05-7.275957614183e-12 0.000000000000e+00
    7.300000000000e+01 1.921875000000e+01 4.696981362413e-09-2.559425053481e+00
    7.580965757370e-07 1.226204435807e-02 8.659437298775e-06 5.153606449127e+03
    4.176000000000e+05 1.322478055954e-07 1.799393626253e+00-2.589076757431e-07
    9.558095976263e-01 2.105625000000e+02-2.475586810013e+00-7.900686238152e-09
   -2.557249376844e-10 1.000000000000e+00 2.042000000000e+03 0.000000000000e+00
    2.400000000000e+00 0.000000000000e+00-1.117587089539e-08 7.300000000000e+01
    4.104000000000e+05 4.000000000000e+00
 6 19  2 28 20  0  0.0 2.656248398125e-04-8.526512829121e-12 0.000000000000e+00
    6.500000000000e+01-9.321875000000e+01 4.169102231271e-09-1.759248920282e+00
   -4.786998033524e-06 1.495466334745e-03 6.914138793945e-06 5.153804363251e+03
    4.176000000000e+05 2.793967723846e-08-1.360476921850e+00 4.284083843231e-08
    9.739693146914e-01 2.548437500000e+02-1.152911564057e+00-7.994618722245e-09
   -1.085759511956e-10 1.000000000000e+00 2.042000000000e+03 0.000000000000e+00
    2.400000000000e+00 0.000000000000e+00 4.656612873077e-09 6.500000000000e+01
    4.104000000000e+05 4.000000000000e+00
 4 19  2 28 20  0  0.0 1.241425052285e-04 8.299139153678e-12 0.000000000000e+00
    1.690000000000e+02 1.103125000000e+01 4.786627953696e-09-2.787803141979e+00
    3.930181264877e-07 3.262397367507e-04 6.569549441338e-06 5.153563810349e+03
    4.176000000000e+05 2.421438694000e-08 7.671589016247e-01 3.539025783539e-08
    9.599870904013e-01 2.490000000000e+02-1.463807732416e+00-8.083908155794e-09
    1.375057276655e-10 1.000000000000e+00 2.042000000000e+03 0.000000000000e+00
    3.400000000000e+00 6.300000000000e+01-8.847564458847e-09 6.810000000000e+02
    4.104000000000e+05 4.000000000000e+00
